CCSDS_OMM_VERS = 2.0
CREATION_DATE  = 
ORIGINATOR     = 

OBJECT_NAME    = CYGNUS NG-23
OBJECT_ID      = 2025-208A
CENTER_NAME    = EARTH
REF_FRAME      = TEME
TIME_SYSTEM    = UTC
MEAN_ELEMENT_THEORY = SGP/SGP4

EPOCH          = 2026-01-04T18:12:13.764960
MEAN_MOTION    = 15.49095636
ECCENTRICITY   = .0007565
INCLINATION    = 51.6325
RA_OF_ASC_NODE = 28.5008
ARG_OF_PERICENTER = 340.7123
MEAN_ANOMALY   = 19.3578

EPHEMERIS_TYPE = 0
CLASSIFICATION_TYPE = U
NORAD_CAT_ID   = 65616
ELEMENT_SET_NO = 999
REV_AT_EPOCH   = 22
BSTAR          = .19661877E-3
MEAN_MOTION_DOT = .10439E-3
MEAN_MOTION_DDOT = 0

CCSDS_OMM_VERS = 2.0
CREATION_DATE  = 
ORIGINATOR     = 

OBJECT_NAME    = DRAGONFLY
OBJECT_ID      = 1998-067XH
CENTER_NAME    = EARTH
REF_FRAME      = TEME
TIME_SYSTEM    = UTC
MEAN_ELEMENT_THEORY = SGP/SGP4

EPOCH          = 2026-01-05T00:05:02.992704
MEAN_MOTION    = 15.82556034
ECCENTRICITY   = .000865
INCLINATION    = 51.6225
RA_OF_ASC_NODE = 15.8378
ARG_OF_PERICENTER = 51.7964
MEAN_ANOMALY   = 308.3817

EPHEMERIS_TYPE = 0
CLASSIFICATION_TYPE = U
NORAD_CAT_ID   = 65729
ELEMENT_SET_NO = 999
REV_AT_EPOCH   = 1683
BSTAR          = .14394E-2
MEAN_MOTION_DOT = .319262E-2
MEAN_MOTION_DDOT = 0

CCSDS_OMM_VERS = 2.0
CREATION_DATE  = 
ORIGINATOR     = 

OBJECT_NAME    = 1998-067XK
OBJECT_ID      = 1998-067XK
CENTER_NAME    = EARTH
REF_FRAME      = TEME
TIME_SYSTEM    = UTC
MEAN_ELEMENT_THEORY = SGP/SGP4

EPOCH          = 2026-01-04T07:04:13.363104
MEAN_MOTION    = 15.71025189
ECCENTRICITY   = .0005326
INCLINATION    = 51.6285
RA_OF_ASC_NODE = 22.4025
ARG_OF_PERICENTER = 22.3820
MEAN_ANOMALY   = 337.7409

EPHEMERIS_TYPE = 0
CLASSIFICATION_TYPE = U
NORAD_CAT_ID   = 65731
ELEMENT_SET_NO = 999
REV_AT_EPOCH   = 1668
BSTAR          = .10273E-2
MEAN_MOTION_DOT = .133296E-2
MEAN_MOTION_DDOT = 0

CCSDS_OMM_VERS = 2.0
CREATION_DATE  = 
ORIGINATOR     = 

OBJECT_NAME    = RSP-03
OBJECT_ID      = 1998-067XL
CENTER_NAME    = EARTH
REF_FRAME      = TEME
TIME_SYSTEM    = UTC
MEAN_ELEMENT_THEORY = SGP/SGP4

EPOCH          = 2026-01-05T03:13:03.518400
MEAN_MOTION    = 15.76232171
ECCENTRICITY   = .0006411
INCLINATION    = 51.6254
RA_OF_ASC_NODE = 16.7348
ARG_OF_PERICENTER = 34.3954
MEAN_ANOMALY   = 325.7460

EPHEMERIS_TYPE = 0
CLASSIFICATION_TYPE = U
NORAD_CAT_ID   = 65732
ELEMENT_SET_NO = 999
REV_AT_EPOCH   = 1684
BSTAR          = .12471E-2
MEAN_MOTION_DOT = .204453E-2
MEAN_MOTION_DDOT = 0

CCSDS_OMM_VERS = 2.0
CREATION_DATE  = 
ORIGINATOR     = 

OBJECT_NAME    = GHS-01
OBJECT_ID      = 1998-067XM
CENTER_NAME    = EARTH
REF_FRAME      = TEME
TIME_SYSTEM    = UTC
MEAN_ELEMENT_THEORY = SGP/SGP4

EPOCH          = 2026-01-04T21:22:14.511072
MEAN_MOTION    = 15.89594440
ECCENTRICITY   = .0009435
INCLINATION    = 51.6258
RA_OF_ASC_NODE = 15.0870
ARG_OF_PERICENTER = 55.8265
MEAN_ANOMALY   = 304.3634

EPHEMERIS_TYPE = 0
CLASSIFICATION_TYPE = U
NORAD_CAT_ID   = 65733
ELEMENT_SET_NO = 999
REV_AT_EPOCH   = 1684
BSTAR          = .15918E-2
MEAN_MOTION_DOT = .47744E-2
MEAN_MOTION_DDOT = .96701E-4

CCSDS_OMM_VERS = 2.0
CREATION_DATE  = 
ORIGINATOR     = 

OBJECT_NAME    = YOTSUBA-KULOVER
OBJECT_ID      = 1998-067XN
CENTER_NAME    = EARTH
REF_FRAME      = TEME
TIME_SYSTEM    = UTC
MEAN_ELEMENT_THEORY = SGP/SGP4

EPOCH          = 2026-01-04T10:31:03.086688
MEAN_MOTION    = 15.63114387
ECCENTRICITY   = .00036144
INCLINATION    = 51.6290
RA_OF_ASC_NODE = 25.6160
ARG_OF_PERICENTER = 53.1676
MEAN_ANOMALY   = 306.9649

EPHEMERIS_TYPE = 0
CLASSIFICATION_TYPE = U
NORAD_CAT_ID   = 65941
ELEMENT_SET_NO = 999
REV_AT_EPOCH   = 1340
BSTAR          = .96586849E-3
MEAN_MOTION_DOT = .90302E-3
MEAN_MOTION_DDOT = 0

CCSDS_OMM_VERS = 2.0
CREATION_DATE  = 
ORIGINATOR     = 

OBJECT_NAME    = BOTAN
OBJECT_ID      = 1998-067XP
CENTER_NAME    = EARTH
REF_FRAME      = TEME
TIME_SYSTEM    = UTC
MEAN_ELEMENT_THEORY = SGP/SGP4

EPOCH          = 2026-01-04T07:36:04.811040
MEAN_MOTION    = 15.68701576
ECCENTRICITY   = .00044387
INCLINATION    = 51.6276
RA_OF_ASC_NODE = 24.7989
ARG_OF_PERICENTER = 42.1697
MEAN_ANOMALY   = 317.9640

EPHEMERIS_TYPE = 0
CLASSIFICATION_TYPE = U
NORAD_CAT_ID   = 65942
ELEMENT_SET_NO = 999
REV_AT_EPOCH   = 1340
BSTAR          = .12885973E-2
MEAN_MOTION_DOT = .152239E-2
MEAN_MOTION_DDOT = 0

CCSDS_OMM_VERS = 2.0
CREATION_DATE  = 
ORIGINATOR     = 

OBJECT_NAME    = E-KAGAKU-1
OBJECT_ID      = 1998-067XQ
CENTER_NAME    = EARTH
REF_FRAME      = TEME
TIME_SYSTEM    = UTC
MEAN_ELEMENT_THEORY = SGP/SGP4

EPOCH          = 2026-01-04T10:30:55.001376
MEAN_MOTION    = 15.63131105
ECCENTRICITY   = .00021958
INCLINATION    = 51.6302
RA_OF_ASC_NODE = 25.6206
ARG_OF_PERICENTER = 46.6951
MEAN_ANOMALY   = 313.4227

EPHEMERIS_TYPE = 0
CLASSIFICATION_TYPE = U
NORAD_CAT_ID   = 65943
ELEMENT_SET_NO = 999
REV_AT_EPOCH   = 1340
BSTAR          = .93835626E-3
MEAN_MOTION_DOT = .87731E-3
MEAN_MOTION_DDOT = 0

CCSDS_OMM_VERS = 2.0
CREATION_DATE  = 
ORIGINATOR     = 

OBJECT_NAME    = HRC MONOBLOCK CAMERA
OBJECT_ID      = 1998-067XR
CENTER_NAME    = EARTH
REF_FRAME      = TEME
TIME_SYSTEM    = UTC
MEAN_ELEMENT_THEORY = SGP/SGP4

EPOCH          = 2026-01-04T09:38:51.576576
MEAN_MOTION    = 15.55907384
ECCENTRICITY   = .00014258
INCLINATION    = 51.6308
RA_OF_ASC_NODE = 28.3723
ARG_OF_PERICENTER = 307.8103
MEAN_ANOMALY   = 52.2759

EPHEMERIS_TYPE = 0
CLASSIFICATION_TYPE = U
NORAD_CAT_ID   = 66052
ELEMENT_SET_NO = 999
REV_AT_EPOCH   = 1236
BSTAR          = .57326546E-3
MEAN_MOTION_DOT = .40227E-3
MEAN_MOTION_DDOT = 0

CCSDS_OMM_VERS = 2.0
CREATION_DATE  = 
ORIGINATOR     = 

OBJECT_NAME    = HTV-X1
OBJECT_ID      = 2025-241A
CENTER_NAME    = EARTH
REF_FRAME      = TEME
TIME_SYSTEM    = UTC
MEAN_ELEMENT_THEORY = SGP/SGP4

EPOCH          = 2026-01-04T18:12:13.764960
MEAN_MOTION    = 15.49095636
ECCENTRICITY   = .0007565
INCLINATION    = 51.6325
RA_OF_ASC_NODE = 28.5008
ARG_OF_PERICENTER = 340.7123
MEAN_ANOMALY   = 19.3578

EPHEMERIS_TYPE = 0
CLASSIFICATION_TYPE = U
NORAD_CAT_ID   = 66174
ELEMENT_SET_NO = 999
REV_AT_EPOCH   = 51
BSTAR          = .19661877E-3
MEAN_MOTION_DOT = .10439E-3
MEAN_MOTION_DDOT = 0

CCSDS_OMM_VERS = 2.0
CREATION_DATE  = 
ORIGINATOR     = 

OBJECT_NAME    = SZ-21 MODULE
OBJECT_ID      = 2025-246C
CENTER_NAME    = EARTH
REF_FRAME      = TEME
TIME_SYSTEM    = UTC
MEAN_ELEMENT_THEORY = SGP/SGP4

EPOCH          = 2026-01-04T23:41:23.705088
MEAN_MOTION    = 15.63935128
ECCENTRICITY   = .0001853
INCLINATION    = 41.4747
RA_OF_ASC_NODE = 234.0941
ARG_OF_PERICENTER = 45.0993
MEAN_ANOMALY   = 314.9997

EPHEMERIS_TYPE = 0
CLASSIFICATION_TYPE = U
NORAD_CAT_ID   = 66515
ELEMENT_SET_NO = 999
REV_AT_EPOCH   = 808
BSTAR          = .32469E-3
MEAN_MOTION_DOT = .31246E-3
MEAN_MOTION_DDOT = 0

CCSDS_OMM_VERS = 2.0
CREATION_DATE  = 
ORIGINATOR     = 

OBJECT_NAME    = SHENZHOU-22
OBJECT_ID      = 2025-272A
CENTER_NAME    = EARTH
REF_FRAME      = TEME
TIME_SYSTEM    = UTC
MEAN_ELEMENT_THEORY = SGP/SGP4

EPOCH          = 2026-01-04T23:00:27.190656
MEAN_MOTION    = 15.60180608
ECCENTRICITY   = .00107175
INCLINATION    = 41.4651
RA_OF_ASC_NODE = 235.6438
ARG_OF_PERICENTER = 221.5522
MEAN_ANOMALY   = 138.4503

EPHEMERIS_TYPE = 0
CLASSIFICATION_TYPE = U
NORAD_CAT_ID   = 66645
ELEMENT_SET_NO = 999
REV_AT_EPOCH   = 26749
BSTAR          = .17783547E-3
MEAN_MOTION_DOT = .14618E-3
MEAN_MOTION_DDOT = 0

